[{"OBJECT_NAME":"FORMOSAT 7-3","OBJECT_ID":"2019-036E","EPOCH":"2026-03-09T19:49:52.754592","MEAN_MOTION":15.08933962,"ECCENTRICITY":0.00010606,"INCLINATION":23.9981,"RA_OF_ASC_NODE":141.9797,"ARG_OF_PERICENTER":150.4425,"MEAN_ANOMALY":209.6139,"EPHEMERIS_TYPE":0,"CLASSIFICATION_TYPE":"U","NORAD_CAT_ID":44343,"ELEMENT_SET_NO":999,"REV_AT_EPOCH":36821,"BSTAR":0.00037650049,"MEAN_MOTION_DOT":6.445e-5,"MEAN_MOTION_DDOT":0},{"OBJECT_NAME":"STARLINK-3203","OBJECT_ID":"2021-115AP","EPOCH":"2026-03-09T10:13:09.926112","MEAN_MOTION":15.08834749,"ECCENTRICITY":0.00013882,"INCLINATION":53.2181,"RA_OF_ASC_NODE":140.3041,"ARG_OF_PERICENTER":85.9447,"MEAN_ANOMALY":274.1704,"EPHEMERIS_TYPE":0,"CLASSIFICATION_TYPE":"U","NORAD_CAT_ID":49761,"ELEMENT_SET_NO":999,"REV_AT_EPOCH":23563,"BSTAR":-3.6623807e-5,"MEAN_MOTION_DOT":-8.71e-6,"MEAN_MOTION_DDOT":0}]
